start=new Date('2023-02-15T00:00:00.000Z').valueOf();
sats=[{"TLE_LINE1":"1 52619U 22052X   23045.68255960  .00001988  00000-0  14299-3 0  9993","CLASSIFICATION_TYPE":"U","REF_FRAME":"TEME","OBJECT_NAME":"STARLINK-3741","CENTER_NAME":"EARTH","DECAY_DATE":null,"MEAN_ELEMENT_THEORY":"SGP4","PERIOD":"95.438","OBJECT_TYPE":"PAYLOAD","MEAN_MOTION_DDOT":"0.0000000000000","COUNTRY_CODE":"US","PERIAPSIS":"538.821","TIME_SYSTEM":"UTC","EPHEMERIS_TYPE":"0","INCLINATION":"53.2106","TLE_LINE2":"2 52619  53.2106 252.5448 0001344  89.8767 270.2379 15.08838167 42057","REV_AT_EPOCH":"4205","APOAPSIS":"540.681","MEAN_ANOMALY":"270.2379","SEMIMAJOR_AXIS":"6917.886","OBJECT_ID":"2022-052X","MEAN_MOTION_DOT":"0.00001988","EPOCH":"2023-02-14T16:22:53.149440","NORAD_CAT_ID":"52619","SITE":"AFETR","RA_OF_ASC_NODE":"252.5448","LAUNCH_DATE":"2022-05-14","MEAN_MOTION":"15.08838167","GP_ID":"225434074","RCS_SIZE":"LARGE","ELEMENT_SET_NO":"999","ARG_OF_PERICENTER":"89.8767","ECCENTRICITY":"0.00013440","FILE":"3792084","BSTAR":"0.00014299000000"},{"MEAN_MOTION":"15.08840779","GP_ID":"225392959","RCS_SIZE":"LARGE","LAUNCH_DATE":"2022-05-14","RA_OF_ASC_NODE":"267.8562","SITE":"AFETR","BSTAR":"0.00022797000000","FILE":"3791349","ECCENTRICITY":"0.00012870","ELEMENT_SET_NO":"999","ARG_OF_PERICENTER":"87.2532","SEMIMAJOR_AXIS":"6917.878","APOAPSIS":"540.633","MEAN_ANOMALY":"272.8607","TLE_LINE2":"2 52620  53.2145 267.8562 0001287  87.2532 272.8607 15.08840779 41835","REV_AT_EPOCH":"4183","NORAD_CAT_ID":"52620","EPOCH":"2023-02-14T14:41:29.377248","OBJECT_ID":"2022-052Y","MEAN_MOTION_DOT":"0.00003342","TIME_SYSTEM":"UTC","COUNTRY_CODE":"US","PERIAPSIS":"538.853","INCLINATION":"53.2145","EPHEMERIS_TYPE":"0","REF_FRAME":"TEME","OBJECT_NAME":"STARLINK-3975","CENTER_NAME":"EARTH","TLE_LINE1":"1 52620U 22052Y   23045.61214557  .00003342  00000-0  22797-3 0  9993","CLASSIFICATION_TYPE":"U","MEAN_MOTION_DDOT":"0.0000000000000","OBJECT_TYPE":"PAYLOAD","PERIOD":"95.438","MEAN_ELEMENT_THEORY":"SGP4","DECAY_DATE":null},{"MEAN_MOTION_DDOT":"0.0000000000000","OBJECT_TYPE":"PAYLOAD","PERIOD":"95.438","MEAN_ELEMENT_THEORY":"SGP4","DECAY_DATE":null,"CENTER_NAME":"EARTH","OBJECT_NAME":"STARLINK-3984","REF_FRAME":"TEME","TLE_LINE1":"1 52621U 22052Z   23045.67424605  .00001437  00000-0  10836-3 0  9991","CLASSIFICATION_TYPE":"U","INCLINATION":"53.2139","EPHEMERIS_TYPE":"0","TIME_SYSTEM":"UTC","COUNTRY_CODE":"US","PERIAPSIS":"539.078","NORAD_CAT_ID":"52621","EPOCH":"2023-02-14T16:10:54.858720","OBJECT_ID":"2022-052Z","MEAN_MOTION_DOT":"0.00001437","SEMIMAJOR_AXIS":"6917.912","APOAPSIS":"540.477","MEAN_ANOMALY":"267.3106","REV_AT_EPOCH":"4205","TLE_LINE2":"2 52621  53.2139 252.5794 0001011  92.8002 267.3106 15.08829507 42050","BSTAR":"0.00010836000000","FILE":"3792084","ECCENTRICITY":"0.00010110","ELEMENT_SET_NO":"999","ARG_OF_PERICENTER":"92.8002","MEAN_MOTION":"15.08829507","GP_ID":"225433572","RCS_SIZE":"LARGE","LAUNCH_DATE":"2022-05-14","SITE":"AFETR","RA_OF_ASC_NODE":"252.5794"},{"NORAD_CAT_ID":"52622","EPOCH":"2023-02-14T13:48:29.564352","OBJECT_ID":"2022-052AA","MEAN_MOTION_DOT":"0.00000146","SEMIMAJOR_AXIS":"6917.882","MEAN_ANOMALY":"275.1639","APOAPSIS":"540.827","REV_AT_EPOCH":"4221","TLE_LINE2":"2 52622  53.2135 268.0237 0001561  84.9531 275.1639 15.08839568 42214","BSTAR":"0.00002729800000","FILE":"3791458","ECCENTRICITY":"0.00015610","ARG_OF_PERICENTER":"84.9531","ELEMENT_SET_NO":"999","RCS_SIZE":"LARGE","GP_ID":"225397053","MEAN_MOTION":"15.08839568","LAUNCH_DATE":"2022-05-14","SITE":"AFETR","RA_OF_ASC_NODE":"268.0237","OBJECT_TYPE":"PAYLOAD","MEAN_MOTION_DDOT":"0.0000000000000","PERIOD":"95.438","MEAN_ELEMENT_THEORY":"SGP4","DECAY_DATE":null,"OBJECT_NAME":"STARLINK-4008","CENTER_NAME":"EARTH","REF_FRAME":"TEME","CLASSIFICATION_TYPE":"U","TLE_LINE1":"1 52622U 22052AA  23045.57534218  .00000146  00000-0  27298-4 0  9990","INCLINATION":"53.2135","EPHEMERIS_TYPE":"0","TIME_SYSTEM":"UTC","PERIAPSIS":"538.667","COUNTRY_CODE":"US"},{"EPOCH":"2023-02-14T14:30:13.286016","NORAD_CAT_ID":"52623","MEAN_MOTION_DOT":"0.00001272","OBJECT_ID":"2022-052AB","SEMIMAJOR_AXIS":"6917.875","MEAN_ANOMALY":"279.3161","APOAPSIS":"540.698","TLE_LINE2":"2 52623  53.2140 252.8920 0001386  80.7987 279.3161 15.08841908 42043","REV_AT_EPOCH":"4204","BSTAR":"0.00009801800000","FILE":"3791349","ECCENTRICITY":"0.00013860","ARG_OF_PERICENTER":"80.7987","ELEMENT_SET_NO":"999","GP_ID":"225393210","RCS_SIZE":"LARGE","MEAN_MOTION":"15.08841908","LAUNCH_DATE":"2022-05-14","RA_OF_ASC_NODE":"252.8920","SITE":"AFETR","OBJECT_TYPE":"PAYLOAD","MEAN_MOTION_DDOT":"0.0000000000000","PERIOD":"95.437","MEAN_ELEMENT_THEORY":"SGP4","DECAY_DATE":null,"CENTER_NAME":"EARTH","OBJECT_NAME":"STARLINK-3986","REF_FRAME":"TEME","CLASSIFICATION_TYPE":"U","TLE_LINE1":"1 52623U 22052AB  23045.60432044  .00001272  00000-0  98018-4 0  9998","INCLINATION":"53.2140","EPHEMERIS_TYPE":"0","TIME_SYSTEM":"UTC","PERIAPSIS":"538.781","COUNTRY_CODE":"US"},{"EPHEMERIS_TYPE":"0","INCLINATION":"53.2149","COUNTRY_CODE":"US","PERIAPSIS":"538.882","TIME_SYSTEM":"UTC","DECAY_DATE":null,"MEAN_ELEMENT_THEORY":"SGP4","PERIOD":"95.436","MEAN_MOTION_DDOT":"0.0000000000000","OBJECT_TYPE":"PAYLOAD","TLE_LINE1":"1 52624U 22052AC  23045.83334491 -.00051897  00000-0 -32642-2 0  9990","CLASSIFICATION_TYPE":"U","REF_FRAME":"TEME","OBJECT_NAME":"STARLINK-4009","CENTER_NAME":"EARTH","ELEMENT_SET_NO":"999","ARG_OF_PERICENTER":"96.4340","ECCENTRICITY":"0.00011420","FILE":"3792084","BSTAR":"-0.00326420000000","RA_OF_ASC_NODE":"251.8674","SITE":"AFETR","LAUNCH_DATE":"2022-05-14","MEAN_MOTION":"15.08864109","RCS_SIZE":"LARGE","GP_ID":"225434315","OBJECT_ID":"2022-052AC","MEAN_MOTION_DOT":"-0.00051897","EPOCH":"2023-02-14T20:00:01.000224","NORAD_CAT_ID":"52624","TLE_LINE2":"2 52624  53.2149 251.8674 0001142  96.4340   8.3691 15.08864109  1305","REV_AT_EPOCH":"130","APOAPSIS":"540.462","MEAN_ANOMALY":"8.3691","SEMIMAJOR_AXIS":"6917.807"},{"EPHEMERIS_TYPE":"0","INCLINATION":"53.2139","TIME_SYSTEM":"UTC","PERIAPSIS":"538.883","COUNTRY_CODE":"US","MEAN_ELEMENT_THEORY":"SGP4","DECAY_DATE":null,"MEAN_MOTION_DDOT":"0.0000000000000","OBJECT_TYPE":"PAYLOAD","PERIOD":"95.437","CLASSIFICATION_TYPE":"U","TLE_LINE1":"1 52625U 22052AD  23045.60063756  .00001799  00000-0  13110-3 0  9993","OBJECT_NAME":"STARLINK-3988","REF_FRAME":"TEME","CENTER_NAME":"EARTH","ECCENTRICITY":"0.00012270","ARG_OF_PERICENTER":"87.6248","ELEMENT_SET_NO":"999","BSTAR":"0.00013110000000","FILE":"3791349","RA_OF_ASC_NODE":"252.9091","SITE":"AFETR","GP_ID":"225393710","RCS_SIZE":"LARGE","MEAN_MOTION":"15.08844432","LAUNCH_DATE":"2022-05-14","OBJECT_ID":"2022-052AD","MEAN_MOTION_DOT":"0.00001799","EPOCH":"2023-02-14T14:24:55.085184","NORAD_CAT_ID":"52625","TLE_LINE2":"2 52625  53.2139 252.9091 0001227  87.6248 272.4884 15.08844432 42044","REV_AT_EPOCH":"4204","SEMIMAJOR_AXIS":"6917.867","MEAN_ANOMALY":"272.4884","APOAPSIS":"540.581"},{"NORAD_CAT_ID":"52626","EPOCH":"2023-02-14T16:16:12.593856","OBJECT_ID":"2022-052AE","MEAN_MOTION_DOT":"0.00013727","MEAN_ANOMALY":"276.8576","APOAPSIS":"540.342","SEMIMAJOR_AXIS":"6917.890","TLE_LINE2":"2 52626  53.2139 252.5625 0000848  83.2513 276.8576 15.08836861 42053","REV_AT_EPOCH":"4205","FILE":"3792084","BSTAR":"0.00087892000000","ARG_OF_PERICENTER":"83.2513","ELEMENT_SET_NO":"999","ECCENTRICITY":"0.00008480","LAUNCH_DATE":"2022-05-14","GP_ID":"225433323","RCS_SIZE":"LARGE","MEAN_MOTION":"15.08836861","SITE":"AFETR","RA_OF_ASC_NODE":"252.5625","PERIOD":"95.438","OBJECT_TYPE":"PAYLOAD","MEAN_MOTION_DDOT":"0.0000000000000","DECAY_DATE":null,"MEAN_ELEMENT_THEORY":"SGP4","CENTER_NAME":"EARTH","REF_FRAME":"TEME","OBJECT_NAME":"STARLINK-3990","CLASSIFICATION_TYPE":"U","TLE_LINE1":"1 52626U 22052AE  23045.67792354  .00013727  00000-0  87892-3 0  9996","INCLINATION":"53.2139","EPHEMERIS_TYPE":"0","PERIAPSIS":"539.168","COUNTRY_CODE":"US","TIME_SYSTEM":"UTC"},{"COUNTRY_CODE":"US","PERIAPSIS":"538.720","TIME_SYSTEM":"UTC","INCLINATION":"53.2119","EPHEMERIS_TYPE":"0","CENTER_NAME":"EARTH","OBJECT_NAME":"STARLINK-3992","REF_FRAME":"TEME","TLE_LINE1":"1 52627U 22052AF  23045.58960111  .00002476  00000-0  17360-3 0  9997","CLASSIFICATION_TYPE":"U","PERIOD":"95.437","OBJECT_TYPE":"PAYLOAD","MEAN_MOTION_DDOT":"0.0000000000000","DECAY_DATE":null,"MEAN_ELEMENT_THEORY":"SGP4","LAUNCH_DATE":"2022-05-14","MEAN_MOTION":"15.08842635","RCS_SIZE":"LARGE","GP_ID":"225392711","SITE":"AFETR","RA_OF_ASC_NODE":"252.9588","FILE":"3791349","BSTAR":"0.00017360000000","ELEMENT_SET_NO":"999","ARG_OF_PERICENTER":"83.4489","ECCENTRICITY":"0.00014700","APOAPSIS":"540.754","MEAN_ANOMALY":"276.6670","SEMIMAJOR_AXIS":"6917.872","REV_AT_EPOCH":"4205","TLE_LINE2":"2 52627  53.2119 252.9588 0001470  83.4489 276.6670 15.08842635 42059","EPOCH":"2023-02-14T14:09:01.535904","NORAD_CAT_ID":"52627","OBJECT_ID":"2022-052AF","MEAN_MOTION_DOT":"0.00002476"},{"OBJECT_ID":"2022-052AG","MEAN_MOTION_DOT":"0.00008818","NORAD_CAT_ID":"52628","EPOCH":"2023-02-14T07:21:39.862368","REV_AT_EPOCH":"4179","TLE_LINE2":"2 52628  53.2143 269.2327 0001292  73.5822 286.5312 15.08844197 41790","APOAPSIS":"540.626","MEAN_ANOMALY":"286.5312","SEMIMAJOR_AXIS":"6917.868","ELEMENT_SET_NO":"999","ARG_OF_PERICENTER":"73.5822","ECCENTRICITY":"0.00012920","FILE":"3791349","BSTAR":"0.00057135000000","RA_OF_ASC_NODE":"269.2327","SITE":"AFETR","LAUNCH_DATE":"2022-05-14","MEAN_MOTION":"15.08844197","GP_ID":"225392960","RCS_SIZE":"LARGE","DECAY_DATE":null,"MEAN_ELEMENT_THEORY":"SGP4","PERIOD":"95.437","OBJECT_TYPE":"PAYLOAD","MEAN_MOTION_DDOT":"0.0000000000000","TLE_LINE1":"1 52628U 22052AG  23045.30671137  .00008818  00000-0  57135-3 0  9995","CLASSIFICATION_TYPE":"U","REF_FRAME":"TEME","CENTER_NAME":"EARTH","OBJECT_NAME":"STARLINK-4001","EPHEMERIS_TYPE":"0","INCLINATION":"53.2143","COUNTRY_CODE":"US","PERIAPSIS":"538.839","TIME_SYSTEM":"UTC"}];
